start=new Date('2023-07-03T00:00:00.000Z').valueOf();
sats=[{"DECAY_DATE":null,"PERIAPSIS":"538.883","COUNTRY_CODE":"US","TLE_LINE1":"1 51784U 22017S   23182.98622780 -.00000316  00000-0 -17512-5 0  9998","APOAPSIS":"540.600","INCLINATION":"53.2181","ELEMENT_SET_NO":"999","GP_ID":"234667526","TIME_SYSTEM":"UTC","LAUNCH_DATE":"2022-02-25","SITE":"AFWTR","OBJECT_NAME":"STARLINK-3632","RA_OF_ASC_NODE":"76.1604","OBJECT_ID":"2022-017S","EPHEMERIS_TYPE":"0","MEAN_ELEMENT_THEORY":"SGP4","TLE_LINE2":"2 51784  53.2181  76.1604 0001241  89.9961 270.1173 15.08841368 75727","MEAN_ANOMALY":"270.1173","RCS_SIZE":"LARGE","REV_AT_EPOCH":"7572","MEAN_MOTION_DDOT":"0.0000000000000","OBJECT_TYPE":"PAYLOAD","NORAD_CAT_ID":"51784","REF_FRAME":"TEME","SEMIMAJOR_AXIS":"6917.876","MEAN_MOTION":"15.08841368","PERIOD":"95.437","CLASSIFICATION_TYPE":"U","EPOCH":"2023-07-01T23:40:10.081920","CENTER_NAME":"EARTH","ECCENTRICITY":"0.00012410","FILE":"3947465","BSTAR":"-0.00000175120000","MEAN_MOTION_DOT":"-0.00000316","ARG_OF_PERICENTER":"89.9961"},{"TIME_SYSTEM":"UTC","GP_ID":"234667654","ELEMENT_SET_NO":"999","COUNTRY_CODE":"US","TLE_LINE1":"1 51785U 22017T   23183.03130543 -.00000844  00000-0 -34928-4 0  9992","APOAPSIS":"540.643","INCLINATION":"53.2176","DECAY_DATE":null,"PERIAPSIS":"538.832","TLE_LINE2":"2 51785  53.2176  65.9548 0001309  99.0115 261.1025 15.08842582 75919","MEAN_ELEMENT_THEORY":"SGP4","EPHEMERIS_TYPE":"0","MEAN_MOTION_DDOT":"0.0000000000000","REV_AT_EPOCH":"7591","MEAN_ANOMALY":"261.1025","RCS_SIZE":"LARGE","SITE":"AFWTR","OBJECT_NAME":"STARLINK-3646","LAUNCH_DATE":"2022-02-25","RA_OF_ASC_NODE":"65.9548","OBJECT_ID":"2022-017T","PERIOD":"95.437","EPOCH":"2023-07-02T00:45:04.789152","CLASSIFICATION_TYPE":"U","NORAD_CAT_ID":"51785","OBJECT_TYPE":"PAYLOAD","MEAN_MOTION":"15.08842582","SEMIMAJOR_AXIS":"6917.872","REF_FRAME":"TEME","BSTAR":"-0.00003492800000","ARG_OF_PERICENTER":"99.0115","MEAN_MOTION_DOT":"-0.00000844","CENTER_NAME":"EARTH","ECCENTRICITY":"0.00013090","FILE":"3947465"},{"APOAPSIS":"541.028","TLE_LINE1":"1 51786U 22017U   23183.11135997  .00013079  00000-0  83972-3 0  9994","COUNTRY_CODE":"US","INCLINATION":"53.2174","DECAY_DATE":null,"PERIAPSIS":"538.836","TIME_SYSTEM":"UTC","GP_ID":"234674564","ELEMENT_SET_NO":"999","OBJECT_NAME":"STARLINK-3638","SITE":"AFWTR","LAUNCH_DATE":"2022-02-25","RA_OF_ASC_NODE":"75.5986","OBJECT_ID":"2022-017U","TLE_LINE2":"2 51786  53.2174  75.5986 0001584  96.1348 263.9825 15.08778854 75785","MEAN_ELEMENT_THEORY":"SGP4","EPHEMERIS_TYPE":"0","MEAN_MOTION_DDOT":"0.0000000000000","REV_AT_EPOCH":"7578","MEAN_ANOMALY":"263.9825","RCS_SIZE":"LARGE","NORAD_CAT_ID":"51786","OBJECT_TYPE":"PAYLOAD","MEAN_MOTION":"15.08778854","SEMIMAJOR_AXIS":"6918.067","REF_FRAME":"TEME","PERIOD":"95.441","EPOCH":"2023-07-02T02:40:21.501408","CLASSIFICATION_TYPE":"U","CENTER_NAME":"EARTH","FILE":"3947756","ECCENTRICITY":"0.00015840","BSTAR":"0.00083972000000","ARG_OF_PERICENTER":"96.1348","MEAN_MOTION_DOT":"0.00013079"},{"ARG_OF_PERICENTER":"91.7248","MEAN_MOTION_DOT":"0.00000105","BSTAR":"0.00002468200000","FILE":"3947925","ECCENTRICITY":"0.00014140","CENTER_NAME":"EARTH","EPOCH":"2023-07-02T09:23:04.648992","CLASSIFICATION_TYPE":"U","PERIOD":"95.438","SEMIMAJOR_AXIS":"6917.883","MEAN_MOTION":"15.08839087","REF_FRAME":"TEME","OBJECT_TYPE":"PAYLOAD","NORAD_CAT_ID":"51787","REV_AT_EPOCH":"7577","MEAN_MOTION_DDOT":"0.0000000000000","RCS_SIZE":"LARGE","MEAN_ANOMALY":"268.3906","TLE_LINE2":"2 51787  53.2172  74.3407 0001414  91.7248 268.3906 15.08839087 75775","EPHEMERIS_TYPE":"0","MEAN_ELEMENT_THEORY":"SGP4","RA_OF_ASC_NODE":"74.3407","OBJECT_ID":"2022-017V","OBJECT_NAME":"STARLINK-3619","SITE":"AFWTR","LAUNCH_DATE":"2022-02-25","TIME_SYSTEM":"UTC","ELEMENT_SET_NO":"999","GP_ID":"234678900","TLE_LINE1":"1 51787U 22017V   23183.39102603  .00000105  00000-0  24682-4 0  9993","INCLINATION":"53.2172","COUNTRY_CODE":"US","APOAPSIS":"540.726","PERIAPSIS":"538.770","DECAY_DATE":null},{"PERIAPSIS":"538.900","DECAY_DATE":null,"TLE_LINE1":"1 51788U 22017W   23183.49775972  .00009789  00000-0  63291-3 0  9995","APOAPSIS":"540.816","COUNTRY_CODE":"US","INCLINATION":"53.2170","ELEMENT_SET_NO":"999","GP_ID":"234674687","TIME_SYSTEM":"UTC","RA_OF_ASC_NODE":"73.8613","OBJECT_ID":"2022-017W","LAUNCH_DATE":"2022-02-25","OBJECT_NAME":"STARLINK-3641","SITE":"AFWTR","MEAN_ANOMALY":"264.0219","RCS_SIZE":"LARGE","MEAN_MOTION_DDOT":"0.0000000000000","REV_AT_EPOCH":"7579","MEAN_ELEMENT_THEORY":"SGP4","EPHEMERIS_TYPE":"0","TLE_LINE2":"2 51788  53.2170  73.8613 0001385  96.0931 264.0219 15.08803115 75796","REF_FRAME":"TEME","MEAN_MOTION":"15.08803115","SEMIMAJOR_AXIS":"6917.993","NORAD_CAT_ID":"51788","OBJECT_TYPE":"PAYLOAD","CLASSIFICATION_TYPE":"U","EPOCH":"2023-07-02T11:56:46.439808","PERIOD":"95.440","ECCENTRICITY":"0.00013850","FILE":"3947756","CENTER_NAME":"EARTH","MEAN_MOTION_DOT":"0.00009789","ARG_OF_PERICENTER":"96.0931","BSTAR":"0.00063291000000"},{"OBJECT_TYPE":"PAYLOAD","NORAD_CAT_ID":"51789","REF_FRAME":"TEME","SEMIMAJOR_AXIS":"6917.858","MEAN_MOTION":"15.08847441","PERIOD":"95.437","CLASSIFICATION_TYPE":"U","EPOCH":"2023-07-01T23:34:51.574368","CENTER_NAME":"EARTH","FILE":"3947465","ECCENTRICITY":"0.00011920","BSTAR":"0.00002134700000","MEAN_MOTION_DOT":"0.00000052","ARG_OF_PERICENTER":"92.1025","DECAY_DATE":null,"PERIAPSIS":"538.898","COUNTRY_CODE":"US","TLE_LINE1":"1 51789U 22017X   23182.98254137  .00000052  00000-0  21347-4 0  9995","APOAPSIS":"540.547","INCLINATION":"53.2172","GP_ID":"234667666","ELEMENT_SET_NO":"999","TIME_SYSTEM":"UTC","LAUNCH_DATE":"2022-02-25","SITE":"AFWTR","OBJECT_NAME":"STARLINK-3639","OBJECT_ID":"2022-017X","RA_OF_ASC_NODE":"76.1753","MEAN_ELEMENT_THEORY":"SGP4","EPHEMERIS_TYPE":"0","TLE_LINE2":"2 51789  53.2172  76.1753 0001192  92.1025 268.0104 15.08847441 75727","RCS_SIZE":"LARGE","MEAN_ANOMALY":"268.0104","REV_AT_EPOCH":"7572","MEAN_MOTION_DDOT":"0.0000000000000"},{"BSTAR":"0.00003712200000","ARG_OF_PERICENTER":"82.0885","MEAN_MOTION_DOT":"0.00000303","CENTER_NAME":"EARTH","FILE":"3947752","ECCENTRICITY":"0.00011060","PERIOD":"95.437","CLASSIFICATION_TYPE":"U","EPOCH":"2023-07-02T10:16:04.132704","OBJECT_TYPE":"PAYLOAD","NORAD_CAT_ID":"51790","SEMIMAJOR_AXIS":"6917.867","MEAN_MOTION":"15.08844322","REF_FRAME":"TEME","TLE_LINE2":"2 51790  53.2179  74.1748 0001106  82.0885 278.0232 15.08844322 75835","MEAN_ELEMENT_THEORY":"SGP4","EPHEMERIS_TYPE":"0","REV_AT_EPOCH":"7583","MEAN_MOTION_DDOT":"0.0000000000000","MEAN_ANOMALY":"278.0232","RCS_SIZE":"LARGE","SITE":"AFWTR","OBJECT_NAME":"STARLINK-3631","LAUNCH_DATE":"2022-02-25","RA_OF_ASC_NODE":"74.1748","OBJECT_ID":"2022-017Y","TIME_SYSTEM":"UTC","ELEMENT_SET_NO":"999","GP_ID":"234674584","APOAPSIS":"540.497","TLE_LINE1":"1 51790U 22017Y   23183.42782561  .00000303  00000-0  37122-4 0  9991","COUNTRY_CODE":"US","INCLINATION":"53.2179","PERIAPSIS":"538.967","DECAY_DATE":null},{"ARG_OF_PERICENTER":"91.0116","MEAN_MOTION_DOT":"-0.00000599","BSTAR":"-0.00001955700000","ECCENTRICITY":"0.00010990","FILE":"3947199","CENTER_NAME":"EARTH","CLASSIFICATION_TYPE":"U","EPOCH":"2023-07-01T10:41:11.366880","PERIOD":"95.437","MEAN_MOTION":"15.08844371","SEMIMAJOR_AXIS":"6917.867","REF_FRAME":"TEME","NORAD_CAT_ID":"51791","OBJECT_TYPE":"PAYLOAD","MEAN_MOTION_DDOT":"0.0000000000000","REV_AT_EPOCH":"7563","RCS_SIZE":"LARGE","MEAN_ANOMALY":"269.1002","TLE_LINE2":"2 51791  53.2159  78.5881 0001099  91.0116 269.1002 15.08844371 75636","MEAN_ELEMENT_THEORY":"SGP4","EPHEMERIS_TYPE":"0","OBJECT_ID":"2022-017Z","RA_OF_ASC_NODE":"78.5881","SITE":"AFWTR","OBJECT_NAME":"STARLINK-3602","LAUNCH_DATE":"2022-02-25","TIME_SYSTEM":"UTC","ELEMENT_SET_NO":"999","GP_ID":"234660991","APOAPSIS":"540.492","TLE_LINE1":"1 51791U 22017Z   23182.44527045 -.00000599  00000-0 -19557-4 0  9998","COUNTRY_CODE":"US","INCLINATION":"53.2159","PERIAPSIS":"538.972","DECAY_DATE":null},{"TLE_LINE1":"1 51792U 22017AA  23183.42047319  .00003377  00000-0  23026-3 0  9999","COUNTRY_CODE":"US","INCLINATION":"53.2175","APOAPSIS":"540.571","DECAY_DATE":null,"PERIAPSIS":"539.005","TIME_SYSTEM":"UTC","ELEMENT_SET_NO":"999","GP_ID":"234674699","RA_OF_ASC_NODE":"74.2081","OBJECT_ID":"2022-017AA","SITE":"AFWTR","OBJECT_NAME":"STARLINK-3626","LAUNCH_DATE":"2022-02-25","REV_AT_EPOCH":"7583","MEAN_MOTION_DDOT":"0.0000000000000","RCS_SIZE":"LARGE","MEAN_ANOMALY":"272.4587","TLE_LINE2":"2 51792  53.2175  74.2081 0001132  87.6534 272.4587 15.08826185 75833","EPHEMERIS_TYPE":"0","MEAN_ELEMENT_THEORY":"SGP4","SEMIMAJOR_AXIS":"6917.923","MEAN_MOTION":"15.08826185","REF_FRAME":"TEME","OBJECT_TYPE":"PAYLOAD","NORAD_CAT_ID":"51792","CLASSIFICATION_TYPE":"U","EPOCH":"2023-07-02T10:05:28.883616","PERIOD":"95.438","ECCENTRICITY":"0.00011320","FILE":"3947752","CENTER_NAME":"EARTH","ARG_OF_PERICENTER":"87.6534","MEAN_MOTION_DOT":"0.00003377","BSTAR":"0.00023026000000"},{"TLE_LINE2":"2 51793  53.2175  74.1438 0001219  95.4826 264.6305 15.08845242 75832","EPHEMERIS_TYPE":"0","MEAN_ELEMENT_THEORY":"SGP4","REV_AT_EPOCH":"7583","MEAN_MOTION_DDOT":"0.0000000000000","MEAN_ANOMALY":"264.6305","RCS_SIZE":"MEDIUM","SITE":"AFWTR","OBJECT_NAME":"STARLINK-3633","LAUNCH_DATE":"2022-02-25","OBJECT_ID":"2022-017AB","RA_OF_ASC_NODE":"74.1438","TIME_SYSTEM":"UTC","ELEMENT_SET_NO":"999","GP_ID":"234674583","COUNTRY_CODE":"US","TLE_LINE1":"1 51793U 22017AB  23183.43518534  .00000395  00000-0  42903-4 0  9996","APOAPSIS":"540.573","INCLINATION":"53.2175","PERIAPSIS":"538.886","DECAY_DATE":null,"BSTAR":"0.00004290300000","ARG_OF_PERICENTER":"95.4826","MEAN_MOTION_DOT":"0.00000395","CENTER_NAME":"EARTH","ECCENTRICITY":"0.00012190","FILE":"3947752","PERIOD":"95.437","CLASSIFICATION_TYPE":"U","EPOCH":"2023-07-02T10:26:40.013376","OBJECT_TYPE":"PAYLOAD","NORAD_CAT_ID":"51793","SEMIMAJOR_AXIS":"6917.864","MEAN_MOTION":"15.08845242","REF_FRAME":"TEME"}];
